 Automated mail xmit by MAIL_REQUEST, PID=   109779 Wed Nov 30 07:04:55 2016
++++++++++++++++++++++++++++++++ (part 1 of 1)  +++++++++++++++++++++++++++++++

*******************************************************************************
 Revised: Jun 17, 2016            Dione  / (Saturn)                         604
                        http://ssd.jpl.nasa.gov/?sat_phys_par
                          http://ssd.jpl.nasa.gov/?sat_elem

 SATELLITE PHYSICAL PROPERTIES:
  Mean Radius (km)        = 562.5   +- 5     Density (g/cm^3) =  1.469 +- 0.012
  Mass (10^22 g)          = 109.572          Geometric Albedo =  0.6
  GM (km^3/s^2)           =  73.113 +- 0.02 V(1,0)            = +0.8

 SATELLITE ORBITAL DATA (mean values referred to local Laplace plane):
  Semi-major axis, a (km) = 377.42(10^3)    Orbital period    = 2.736915 d
  Eccentricity, e         = 0.0022          Rotational period = Synchronous
  Inclination, i  (deg)   = 0.028
*******************************************************************************


*******************************************************************************
Ephemeris / MAIL_REQUEST Wed Nov 30 07:04:54 2016 Pasadena, USA  / Horizons
*******************************************************************************
Target body name: Dione (604)                     {source: sat389}
Center body name: Solar System Barycenter (0)     {source: DE431mx}
Center-site name: BODY CENTER
*******************************************************************************
Start time      : A.D. 2016-Nov-30 00:00:00.0000 TDB
Stop  time      : A.D. 2016-Dec-30 00:00:00.0000 TDB
Step-size       : 720 minutes
*******************************************************************************
Center geodetic : 0.00000000,0.00000000,0.0000000 {E-lon(deg),Lat(deg),Alt(km)}
Center cylindric: 0.00000000,0.00000000,0.0000000 {E-lon(deg),Dxy(km),Dz(km)}
Center radii    : (undefined)
Output units    : KM-S
Output type     : GEOMETRIC cartesian states
Output format   : 2x (pos. & vel. w/uncertainties: XYZ)
Reference frame : ICRF/J2000.0
Coordinate systm: Ecliptic and Mean Equinox of Reference Epoch
*******************************************************************************
JDTDB
 State   : X       Y        Z     VX       VY        VZ
 1-sigma : X_s     Y_s      Z_s   VX_s     VY_s      VZ_s
*******************************************************************************************************************************************************
$$SOE
2457742.500000000 = A.D. 2016-Dec-20 00:00:00.0000 TDB
 XYZ   : -2.883365753458691E+08  -1.473641301371096E+09   3.693098512512410E+07  -1.010324147751538E+00  -2.317421958473410E+00   8.630911277158385E-01
 sigmas:                   n.a.                    n.a.                    n.a.                    n.a.                    n.a.                    n.a.
2457743.000000000 = A.D. 2016-Dec-20 12:00:00.0000 TDB
 XYZ   : -2.882709750504411E+08  -1.473935228454197E+09   3.705930628647071E+07   5.728094110367673E+00  -1.018256446793470E+01   4.335415769317281E+00
 sigmas:                   n.a.                    n.a.                    n.a.                    n.a.                    n.a.                    n.a.
2457743.500000000 = A.D. 2016-Dec-21 00:00:00.0000 TDB
 XYZ   : -2.877843360674590E+08  -1.474372927497389E+09   3.722242892658734E+07   1.627134480481194E+01  -8.222764513547725E+00   2.294007283657550E+00
 sigmas:                   n.a.                    n.a.                    n.a.                    n.a.                    n.a.                    n.a.
2457744.000000000 = A.D. 2016-Dec-21 12:00:00.0000 TDB
 XYZ   : -2.869958111158752E+08  -1.474533451686139E+09   3.721130991004771E+07   1.814849768030186E+01   1.192620678418055E+00  -2.818118545989028E+00
 sigmas:                   n.a.                    n.a.                    n.a.                    n.a.                    n.a.                    n.a.
2457744.500000000 = A.D. 2016-Dec-22 00:00:00.0000 TDB
 XYZ   : -2.863787999645121E+08  -1.474324614070599E+09   3.702327360229117E+07   9.227289005029867E+00   6.977356018349996E+00  -4.987638343966747E+00
 sigmas:                   n.a.                    n.a.                    n.a.                    n.a.                    n.a.                    n.a.
2457745.000000000 = A.D. 2016-Dec-22 12:00:00.0000 TDB
 XYZ   : -2.862038645744098E+08  -1.474087166690432E+09   3.686290571842372E+07  -3.955243199848724E-02   2.359802893386545E+00  -1.674302228738657E+00
 sigmas:                   n.a.                    n.a.                    n.a.                    n.a.                    n.a.                    n.a.
2457745.500000000 = A.D. 2016-Dec-23 00:00:00.0000 TDB
 XYZ   : -2.862227522095858E+08  -1.474196619183019E+09   3.690300528226995E+07   1.283455950370582E+00  -7.286303458065608E+00   3.252894759122956E+00
 sigmas:                   n.a.                    n.a.                    n.a.                    n.a.                    n.a.                    n.a.
2457746.000000000 = A.D. 2016-Dec-23 12:00:00.0000 TDB
 XYZ   : -2.859559240897633E+08  -1.474620228149460E+09   3.708020778512323E+07   1.169391880626077E+01  -1.053147047136986E+01   3.951061820931154E+00
 sigmas:                   n.a.                    n.a.                    n.a.                    n.a.                    n.a.                    n.a.
2457746.500000000 = A.D. 2016-Dec-24 00:00:00.0000 TDB
 XYZ   : -2.852618254677412E+08  -1.474952276921836E+09   3.716832567734790E+07   1.883347514970650E+01  -3.540758524593171E+00  -3.979450229902888E-01
 sigmas:                   n.a.                    n.a.                    n.a.                    n.a.                    n.a.                    n.a.
2457747.000000000 = A.D. 2016-Dec-24 12:00:00.0000 TDB
 XYZ   : -2.845039354578538E+08  -1.474897119679549E+09   3.704750240809596E+07   1.433767197171524E+01   5.386982953235690E+00  -4.640488530045365E+00
 sigmas:                   n.a.                    n.a.                    n.a.                    n.a.                    n.a.                    n.a.
2457747.500000000 = A.D. 2016-Dec-25 00:00:00.0000 TDB
 XYZ   : -2.841181683460594E+08  -1.474614972223431E+09   3.684367864938921E+07   3.521145406924166E+00   5.800581587880588E+00  -3.813540452318468E+00
 sigmas:                   n.a.                    n.a.                    n.a.                    n.a.                    n.a.                    n.a.
2457748.000000000 = A.D. 2016-Dec-25 12:00:00.0000 TDB
 XYZ   : -2.841040327437250E+08  -1.474532065898624E+09   3.678010166029394E+07  -9.325212255955595E-01  -2.821159215674895E+00   1.133700447791614E+00
 sigmas:                   n.a.                    n.a.                    n.a.                    n.a.                    n.a.                    n.a.
2457748.500000000 = A.D. 2016-Dec-26 00:00:00.0000 TDB
 XYZ   : -2.840224351802772E+08  -1.474842118346190E+09   3.691594351828015E+07   6.308957864020572E+00  -1.033353891894984E+01   4.372770084276568E+00
 sigmas:                   n.a.                    n.a.                    n.a.                    n.a.                    n.a.                    n.a.
2457749.000000000 = A.D. 2016-Dec-26 12:00:00.0000 TDB
 XYZ   : -2.835119316086646E+08  -1.475273488413989E+09   3.707406583332580E+07   1.667129865587331E+01  -7.806002524281920E+00   2.051361974592137E+00
 sigmas:                   n.a.                    n.a.                    n.a.                    n.a.                    n.a.                    n.a.
2457749.500000000 = A.D. 2016-Dec-27 00:00:00.0000 TDB
 XYZ   : -2.827196941001908E+08  -1.475411292189082E+09   3.705130023524696E+07   1.790347410363468E+01   1.716390003841935E+00  -3.054707222999302E+00
 sigmas:                   n.a.                    n.a.                    n.a.                    n.a.                    n.a.                    n.a.
2457750.000000000 = A.D. 2016-Dec-27 12:00:00.0000 TDB
 XYZ   : -2.821231225413834E+08  -1.475188619698670E+09   3.685859823701632E+07   8.632042794495655E+00   7.029450636728186E+00  -4.943399368033598E+00
 sigmas:                   n.a.                    n.a.                    n.a.                    n.a.                    n.a.                    n.a.
2457750.500000000 = A.D. 2016-Dec-28 00:00:00.0000 TDB
 XYZ   : -2.819686040990617E+08  -1.474960953661946E+09   3.670593454156786E+07  -2.821818004761383E-01   1.911228976475488E+00  -1.401730660784114E+00
 sigmas:                   n.a.                    n.a.                    n.a.                    n.a.                    n.a.                    n.a.
2457751.000000000 = A.D. 2016-Dec-28 12:00:00.0000 TDB
 XYZ   : -2.819835894926843E+08  -1.475090903459602E+09   3.675701018003875E+07   1.687630406394518E+00  -7.672703291299786E+00   3.430607248625110E+00
 sigmas:                   n.a.                    n.a.                    n.a.                    n.a.                    n.a.                    n.a.
2457751.500000000 = A.D. 2016-Dec-29 00:00:00.0000 TDB
 XYZ   : -2.816929183160415E+08  -1.475519978861148E+09   3.693539377845258E+07   1.226933050412712E+01  -1.036370755176222E+01   3.821951492810044E+00
 sigmas:                   n.a.                    n.a.                    n.a.                    n.a.                    n.a.                    n.a.
2457752.000000000 = A.D. 2016-Dec-29 12:00:00.0000 TDB
 XYZ   : -2.809831182440011E+08  -1.475834614282880E+09   3.701349006941235E+07   1.890500385747086E+01  -2.987086419160621E+00  -6.806995246474500E-01
 sigmas:                   n.a.                    n.a.                    n.a.                    n.a.                    n.a.                    n.a.
